start=new Date('2023-05-30T00:00:00.000Z').valueOf();
sats=[{"NORAD_CAT_ID":"56143","ELEMENT_SET_NO":"999","PERIAPSIS":"456.228","MEAN_ANOMALY":"95.3822","COUNTRY_CODE":"US","TLE_LINE1":"1 56143U 23046BD  23149.80404486 -.00187263  00000-0 -52989-2 0  9991","REF_FRAME":"TEME","PERIOD":"93.732","SITE":"AFETR","TIME_SYSTEM":"UTC","MEAN_ELEMENT_THEORY":"SGP4","RCS_SIZE":"LARGE","OBJECT_ID":"2023-046BD","DECAY_DATE":null,"RA_OF_ASC_NODE":"262.5446","CLASSIFICATION_TYPE":"U","CENTER_NAME":"EARTH","OBJECT_TYPE":"PAYLOAD","INCLINATION":"43.0008","FILE":"3920354","LAUNCH_DATE":"2023-03-29","EPHEMERIS_TYPE":"0","MEAN_MOTION_DDOT":"0.0000000000000","APOAPSIS":"457.918","REV_AT_EPOCH":"952","MEAN_MOTION_DOT":"-0.00187263","TLE_LINE2":"2 56143  43.0008 262.5446 0001236 264.6892  95.3822 15.36296926  9528","OBJECT_NAME":"STARLINK-5016","GP_ID":"232782865","MEAN_MOTION":"15.36296926","EPOCH":"2023-05-29T19:17:49.475904","ARG_OF_PERICENTER":"264.6892","SEMIMAJOR_AXIS":"6835.208","BSTAR":"-0.00529890000000","ECCENTRICITY":"0.00012360"},{"MEAN_MOTION":"15.35946380","GP_ID":"232783117","EPOCH":"2023-05-29T19:23:35.182176","SEMIMAJOR_AXIS":"6836.248","ARG_OF_PERICENTER":"324.3134","ECCENTRICITY":"0.00002030","BSTAR":"-0.00790670000000","INCLINATION":"43.0001","OBJECT_TYPE":"PAYLOAD","FILE":"3920354","EPHEMERIS_TYPE":"0","LAUNCH_DATE":"2023-03-29","REV_AT_EPOCH":"952","APOAPSIS":"458.252","MEAN_MOTION_DDOT":"0.0000000000000","TLE_LINE2":"2 56144  43.0001 262.5687 0000203 324.3134  35.7707 15.35946380  9520","MEAN_MOTION_DOT":"-0.00273028","OBJECT_NAME":"STARLINK-5374","PERIOD":"93.753","REF_FRAME":"TEME","TIME_SYSTEM":"UTC","MEAN_ELEMENT_THEORY":"SGP4","SITE":"AFETR","RCS_SIZE":"LARGE","DECAY_DATE":null,"OBJECT_ID":"2023-046BE","RA_OF_ASC_NODE":"262.5687","CLASSIFICATION_TYPE":"U","CENTER_NAME":"EARTH","NORAD_CAT_ID":"56144","ELEMENT_SET_NO":"999","PERIAPSIS":"457.974","MEAN_ANOMALY":"35.7707","COUNTRY_CODE":"US","TLE_LINE1":"1 56144U 23046BE  23149.80804609 -.00273028  00000-0 -79067-2 0  9994"},{"RCS_SIZE":"LARGE","PERIOD":"91.641","REF_FRAME":"TEME","MEAN_ELEMENT_THEORY":"SGP4","TIME_SYSTEM":"UTC","SITE":"AFETR","RA_OF_ASC_NODE":"256.6316","CENTER_NAME":"EARTH","CLASSIFICATION_TYPE":"U","DECAY_DATE":null,"OBJECT_ID":"2023-046BF","PERIAPSIS":"353.883","MEAN_ANOMALY":"98.8044","NORAD_CAT_ID":"56145","ELEMENT_SET_NO":"999","TLE_LINE1":"1 56145U 23046BF  23149.72729890  .00003319  00000-0  28751-4 0  9992","COUNTRY_CODE":"US","EPOCH":"2023-05-29T17:27:18.624960","ARG_OF_PERICENTER":"261.2631","SEMIMAJOR_AXIS":"6733.164","MEAN_MOTION":"15.71353841","GP_ID":"232783356","ECCENTRICITY":"0.00017010","BSTAR":"0.00002875100000","FILE":"3920354","EPHEMERIS_TYPE":"0","LAUNCH_DATE":"2023-03-29","INCLINATION":"42.9976","OBJECT_TYPE":"PAYLOAD","OBJECT_NAME":"STARLINK-5370","APOAPSIS":"356.174","REV_AT_EPOCH":"958","MEAN_MOTION_DDOT":"0.0000000000000","TLE_LINE2":"2 56145  42.9976 256.6316 0001701 261.2631  98.8044 15.71353841  9582","MEAN_MOTION_DOT":"0.00003319"},{"OBJECT_NAME":"STARLINK-5111","REV_AT_EPOCH":"952","APOAPSIS":"457.094","MEAN_MOTION_DDOT":"0.0000000000000","MEAN_MOTION_DOT":"-0.00283478","TLE_LINE2":"2 56146  43.0003 262.5509 0001089 323.1452  36.9328 15.36540644  9526","FILE":"3920354","LAUNCH_DATE":"2023-03-29","EPHEMERIS_TYPE":"0","INCLINATION":"43.0003","OBJECT_TYPE":"PAYLOAD","ECCENTRICITY":"0.00010890","BSTAR":"-0.00806380000000","EPOCH":"2023-05-29T19:19:02.456256","ARG_OF_PERICENTER":"323.1452","SEMIMAJOR_AXIS":"6834.485","GP_ID":"232782615","MEAN_MOTION":"15.36540644","COUNTRY_CODE":"US","TLE_LINE1":"1 56146U 23046BG  23149.80488954 -.00283478  00000-0 -80638-2 0  9993","PERIAPSIS":"455.606","MEAN_ANOMALY":"36.9328","NORAD_CAT_ID":"56146","ELEMENT_SET_NO":"999","RA_OF_ASC_NODE":"262.5509","CLASSIFICATION_TYPE":"U","CENTER_NAME":"EARTH","OBJECT_ID":"2023-046BG","DECAY_DATE":null,"RCS_SIZE":"LARGE","REF_FRAME":"TEME","PERIOD":"93.717","SITE":"AFETR","MEAN_ELEMENT_THEORY":"SGP4","TIME_SYSTEM":"UTC"},{"ECCENTRICITY":"0.00013880","BSTAR":"0.00000225350000","MEAN_MOTION":"15.71352437","GP_ID":"232782867","ARG_OF_PERICENTER":"283.0037","SEMIMAJOR_AXIS":"6733.168","EPOCH":"2023-05-29T17:27:00.855936","TLE_LINE2":"2 56147  43.0006 256.6320 0001388 283.0037  77.0676 15.71352437  9588","MEAN_MOTION_DOT":"-0.00000156","REV_AT_EPOCH":"958","APOAPSIS":"355.967","MEAN_MOTION_DDOT":"0.0000000000000","OBJECT_NAME":"STARLINK-5140","INCLINATION":"43.0006","OBJECT_TYPE":"PAYLOAD","EPHEMERIS_TYPE":"0","LAUNCH_DATE":"2023-03-29","FILE":"3920354","DECAY_DATE":null,"OBJECT_ID":"2023-046BH","CENTER_NAME":"EARTH","CLASSIFICATION_TYPE":"U","RA_OF_ASC_NODE":"256.6320","MEAN_ELEMENT_THEORY":"SGP4","TIME_SYSTEM":"UTC","SITE":"AFETR","PERIOD":"91.641","REF_FRAME":"TEME","RCS_SIZE":"LARGE","COUNTRY_CODE":"US","TLE_LINE1":"1 56147U 23046BH  23149.72709324 -.00000156  00000-0  22535-5 0  9996","ELEMENT_SET_NO":"999","NORAD_CAT_ID":"56147","MEAN_ANOMALY":"77.0676","PERIAPSIS":"354.098"},{"GP_ID":"232783617","MEAN_MOTION":"15.71356634","SEMIMAJOR_AXIS":"6733.156","ARG_OF_PERICENTER":"266.4762","EPOCH":"2023-05-29T17:27:09.629856","ECCENTRICITY":"0.00017190","BSTAR":"0.00005470100000","OBJECT_TYPE":"PAYLOAD","INCLINATION":"42.9985","LAUNCH_DATE":"2023-03-29","EPHEMERIS_TYPE":"0","FILE":"3920354","MEAN_MOTION_DOT":"0.00006727","TLE_LINE2":"2 56148  42.9985 256.6289 0001719 266.4762  93.5909 15.71356634  9580","APOAPSIS":"356.178","MEAN_MOTION_DDOT":"0.0000000000000","REV_AT_EPOCH":"958","OBJECT_NAME":"STARLINK-5089","SITE":"AFETR","TIME_SYSTEM":"UTC","MEAN_ELEMENT_THEORY":"SGP4","REF_FRAME":"TEME","PERIOD":"91.641","RCS_SIZE":"LARGE","OBJECT_ID":"2023-046BJ","DECAY_DATE":null,"CLASSIFICATION_TYPE":"U","CENTER_NAME":"EARTH","RA_OF_ASC_NODE":"256.6289","ELEMENT_SET_NO":"999","NORAD_CAT_ID":"56148","MEAN_ANOMALY":"93.5909","PERIAPSIS":"353.863","COUNTRY_CODE":"US","TLE_LINE1":"1 56148U 23046BJ  23149.72719479  .00006727  00000-0  54701-4 0  9997"},{"ECCENTRICITY":"0.00010430","BSTAR":"-0.11404000000000","ARG_OF_PERICENTER":"281.3167","SEMIMAJOR_AXIS":"6895.238","EPOCH":"2023-05-29T22:00:00.999936","MEAN_MOTION":"15.16278245","GP_ID":"232756600","OBJECT_NAME":"STARLINK-30107","TLE_LINE2":"2 56287  43.0009 329.4279 0001043 281.3167 120.6572 15.16278245  6716","MEAN_MOTION_DOT":"-0.02023897","APOAPSIS":"517.822","MEAN_MOTION_DDOT":"0.0000000000000","REV_AT_EPOCH":"671","EPHEMERIS_TYPE":"0","LAUNCH_DATE":"2023-04-19","FILE":"3920323","INCLINATION":"43.0009","OBJECT_TYPE":"PAYLOAD","CENTER_NAME":"EARTH","CLASSIFICATION_TYPE":"U","RA_OF_ASC_NODE":"329.4279","DECAY_DATE":null,"OBJECT_ID":"2023-056B","RCS_SIZE":"LARGE","TIME_SYSTEM":"UTC","MEAN_ELEMENT_THEORY":"SGP4","SITE":"AFETR","PERIOD":"94.969","REF_FRAME":"TEME","COUNTRY_CODE":"US","TLE_LINE1":"1 56287U 23056B   23149.91667824 -.02023897  00000-0 -11404+0 0  9998","MEAN_ANOMALY":"120.6572","PERIAPSIS":"516.383","ELEMENT_SET_NO":"999","NORAD_CAT_ID":"56287"},{"OBJECT_ID":"2023-056C","DECAY_DATE":null,"CLASSIFICATION_TYPE":"U","CENTER_NAME":"EARTH","RA_OF_ASC_NODE":"330.3685","SITE":"AFETR","MEAN_ELEMENT_THEORY":"SGP4","TIME_SYSTEM":"UTC","REF_FRAME":"TEME","PERIOD":"95.092","RCS_SIZE":"LARGE","TLE_LINE1":"1 56288U 23056C   23149.91499398  .00024531  00000-0  13231-2 0  9993","COUNTRY_CODE":"US","ELEMENT_SET_NO":"999","NORAD_CAT_ID":"56288","MEAN_ANOMALY":"89.8743","PERIAPSIS":"521.275","BSTAR":"0.00132310000000","ECCENTRICITY":"0.00025650","GP_ID":"232784123","MEAN_MOTION":"15.14320153","SEMIMAJOR_AXIS":"6901.180","ARG_OF_PERICENTER":"270.1810","EPOCH":"2023-05-29T21:57:35.479872","MEAN_MOTION_DOT":"0.00024531","TLE_LINE2":"2 56288  43.0015 330.3685 0002565 270.1810  89.8743 15.14320153  7303","APOAPSIS":"524.815","REV_AT_EPOCH":"730","MEAN_MOTION_DDOT":"0.0000000000000","OBJECT_NAME":"STARLINK-30106","INCLINATION":"43.0015","OBJECT_TYPE":"PAYLOAD","LAUNCH_DATE":"2023-04-19","EPHEMERIS_TYPE":"0","FILE":"3920354"},{"INCLINATION":"42.9988","OBJECT_TYPE":"PAYLOAD","FILE":"3920354","EPHEMERIS_TYPE":"0","LAUNCH_DATE":"2023-04-19","MEAN_MOTION_DDOT":"0.0000000000000","APOAPSIS":"350.127","REV_AT_EPOCH":"744","TLE_LINE2":"2 56289  42.9988 317.4324 0001076 274.0382  86.0364 15.73325337  7447","MEAN_MOTION_DOT":"-0.00238797","OBJECT_NAME":"STARLINK-30095","MEAN_MOTION":"15.73325337","GP_ID":"232784135","EPOCH":"2023-05-29T20:04:50.263104","ARG_OF_PERICENTER":"274.0382","SEMIMAJOR_AXIS":"6727.538","ECCENTRICITY":"0.00010760","BSTAR":"-0.00171930000000","NORAD_CAT_ID":"56289","ELEMENT_SET_NO":"999","PERIAPSIS":"348.679","MEAN_ANOMALY":"86.0364","TLE_LINE1":"1 56289U 23056D   23149.83669286 -.00238797  00000-0 -17193-2 0  9994","COUNTRY_CODE":"US","PERIOD":"91.526","REF_FRAME":"TEME","TIME_SYSTEM":"UTC","MEAN_ELEMENT_THEORY":"SGP4","SITE":"AFETR","RCS_SIZE":"LARGE","DECAY_DATE":null,"OBJECT_ID":"2023-056D","RA_OF_ASC_NODE":"317.4324","CLASSIFICATION_TYPE":"U","CENTER_NAME":"EARTH"},{"TIME_SYSTEM":"UTC","MEAN_ELEMENT_THEORY":"SGP4","SITE":"AFETR","PERIOD":"95.092","REF_FRAME":"TEME","RCS_SIZE":"LARGE","DECAY_DATE":null,"OBJECT_ID":"2023-056E","CLASSIFICATION_TYPE":"U","CENTER_NAME":"EARTH","RA_OF_ASC_NODE":"330.7181","ELEMENT_SET_NO":"999","NORAD_CAT_ID":"56290","MEAN_ANOMALY":"91.7634","PERIAPSIS":"521.880","COUNTRY_CODE":"US","TLE_LINE1":"1 56290U 23056E   23149.84690627  .00021978  00000-0  11873-2 0  9998","MEAN_MOTION":"15.14315767","GP_ID":"232784197","ARG_OF_PERICENTER":"268.3017","SEMIMAJOR_AXIS":"6901.194","EPOCH":"2023-05-29T20:19:32.701728","ECCENTRICITY":"0.00017080","BSTAR":"0.00118730000000","OBJECT_TYPE":"PAYLOAD","INCLINATION":"43.0012","EPHEMERIS_TYPE":"0","LAUNCH_DATE":"2023-04-19","FILE":"3920354","TLE_LINE2":"2 56290  43.0012 330.7181 0001708 268.3017  91.7634 15.14315767  7298","MEAN_MOTION_DOT":"0.00021978","APOAPSIS":"524.237","REV_AT_EPOCH":"729","MEAN_MOTION_DDOT":"0.0000000000000","OBJECT_NAME":"STARLINK-30103"}];
